STARLINK-5985           
1 56451U 23064D   23227.45857974  .00000410  00000+0  42129-4 0  9997
2 56451  70.0011 347.7198 0003157 271.8147  88.2650 14.98329241 15218
STARLINK-5986           
1 56452U 23064E   23227.05384511  .00000336  00000+0  35946-4 0  9992
2 56452  70.0008 348.7126 0003133 271.0947  88.9853 14.98329877 15151
STARLINK-5935           
1 56453U 23064F   23227.04966882  .00000179  00000+0  22805-4 0  9994
2 56453  70.0016 348.6997 0003181 268.5236  91.5558 14.98332481 15158
STARLINK-5959           
1 56454U 23064G   23227.42936008  .00000576  00000+0  56065-4 0  9990
2 56454  70.0007 347.6120 0003503 271.4304  88.6453 14.98328667 15212
STARLINK-5987           
1 56455U 23064H   23227.09138736 -.00001532  00000+0 -12058-3 0  9994
2 56455  70.0008 348.4395 0003113 272.1651  87.9151 14.98336321 15164
STARLINK-5995           
1 56456U 23064J   23226.83686878  .00000025  00000+0  98833-5 0  9992
2 56456  70.0009 349.1587 0003299 269.8651  90.2131 14.98330465 15129
STARLINK-5994           
1 56457U 23064K   23226.83269191  .00000429  00000+0  43712-4 0  9991
2 56457  70.0012 349.1437 0003182 271.2192  88.8602 14.98335458 15129
STARLINK-6050           
1 56458U 23064L   23226.83285829  .00000099  00000+0  16089-4 0  9998
2 56458  70.0003 349.1440 0003246 269.6010  90.4777 14.98333027 15127
STARLINK-6048           
1 56459U 23064M   23227.41266373  .00000893  00000+0  82615-4 0  9997
2 56459  70.0001 347.5533 0003333 271.4302  88.6475 14.98327033 15217
STARLINK-6047           
1 56460U 23064N   23227.42101161  .00000534  00000+0  52531-4 0  9999
2 56460  70.0006 347.5828 0003176 271.4379  88.6417 14.98329421 15219
STARLINK-6037           
1 56461U 23064P   23227.07051347 -.00000797  00000+0 -59006-4 0  9998
2 56461  69.9989 348.3668 0003519 269.9197  90.1559 14.98333699 15160
STARLINK-6045           
1 56462U 23064Q   23227.41161125  .00000499  00000+0  59184-5 0  9998
2 56462  70.0000 332.8632 0003490 266.3133  93.7664 15.69920313 15560
STARLINK-6051           
1 56463U 23064R   23227.06651414  .00001881  00000+0  16536-3 0  9993
2 56463  70.0006 348.3548 0001941 280.4251  79.6689 14.98335548 15169
STARLINK-6043           
1 56464U 23064S   23227.41683782  .00000984  00000+0  90230-4 0  9993
2 56464  70.0004 347.5678 0003271 272.4872  87.5912 14.98327576 15216
STARLINK-6054           
1 56465U 23064T   23227.43407304  .00001136  00000+0  11220-4 0  9992
2 56465  69.9987 332.5316 0003290 271.7866  88.2953 15.69921197 15573
STARLINK-6053           
1 56466U 23064U   23226.47385020 -.00000373  00000+0 -23425-4 0  9990
2 56466  70.0005 349.8971 0003206 266.8261  93.2532 14.98330742 15072
STARLINK-6055           
1 56467U 23064V   23227.25001157 -.00857866  00000+0 -94991-2 0  9995
2 56467  70.0012 333.9353 0003551 268.5739  94.5370 15.65402542 15528
STARLINK-5998           
1 56468U 23064W   23227.40016396 -.00002632  00000+0 -21302-3 0  9994
2 56468  70.0006 347.5133 0003343 268.6870  91.3906 14.98306582 15213
STARLINK-5518           
1 56469U 23064X   23227.25001157 -.00859681  00000+0 -95295-2 0  9992
2 56469  70.0014 333.9376 0003543 272.8559  88.2891 15.65381283 15522
STARLINK-5523           
1 56470U 23064Y   23227.58334491 -.00912970  00000+0 -10267-1 0  9996
2 56470  70.0014 333.0058 0003582 277.8926 162.0967 15.64763188 15586
STARLINK-5521           
1 56471U 23064Z   23227.58334491 -.00911867  00000+0 -10245-1 0  9997
2 56471  70.0014 333.0034 0003566 277.8644 164.1167 15.64783957 15581
STARLINK-5038           
1 56472U 23064AA  23227.58334491 -.00913359  00000+0 -10266-1 0  9999
2 56472  70.0015 333.0043 0003637 279.6758 161.6422 15.64776726 15580
STARLINK-5486           
1 56473U 23064AB  23227.25001157 -.00858506  00000+0 -94932-2 0  9999
2 56473  70.0013 333.9314 0003572 272.8482  93.5369 15.65438325 15524
STARLINK-5524           
1 56474U 23064AC  23227.25001157 -.00857738  00000+0 -95029-2 0  9994
2 56474  70.0014 333.9370 0003573 272.9725  88.8276 15.65388207 15527
STARLINK-5541           
1 56475U 23064AD  23227.58334491 -.00913231  00000+0 -10244-1 0  9997
2 56475  70.0014 332.9986 0003605 279.2292 166.7324 15.64826978 15582
STARLINK-5545           
1 56476U 23064AE  23227.58334491 -.00913513  00000+0 -10262-1 0  9991
2 56476  70.0016 333.0026 0003628 280.0272 162.6179 15.64791211 15589
STARLINK-5534           
1 56477U 23064AF  23227.58334491 -.00913485  00000+0 -10244-1 0  9990
2 56477  70.0016 332.9978 0003620 279.8440 166.7803 15.64834452 15583
STARLINK-6041           
1 56478U 23064AG  23227.58334491 -.00913986  00000+0 -10259-1 0  9993
2 56478  70.0014 333.0002 0003596 279.2416 165.3937 15.64813094 15583
STARLINK-6044           
1 56479U 23064AH  23227.25001157 -.00861953  00000+0 -95115-2 0  9999
2 56479  70.0012 333.9251 0003579 271.8136  99.8024 15.65500685 15527
STARLINK-6214           
1 56480U 23064AJ  23227.58334491 -.00913664  00000+0 -10261-1 0  9992
2 56480  70.0015 333.0018 0003605 279.8467 163.4622 15.64798455 15580
STARLINK-6222           
1 56481U 23064AK  23227.25001157 -.00862819  00000+0 -95276-2 0  9992
2 56481  70.0012 333.9266 0003554 272.8102  97.4981 15.65486552 15525
STARLINK-6220           
1 56482U 23064AL  23226.83334491 -.00921410  00000+0 -97527-2 0  9990
2 56482  70.0009 335.0942 0003403 274.6065 264.9796 15.66296334 15463
STARLINK-5868           
1 56483U 23064AM  23227.25001157 -.00863382  00000+0 -95262-2 0  9995
2 56483  70.0013 333.9243 0003542 272.7210  99.5493 15.65508324 15522
STARLINK-6221           
1 56484U 23064AN  23227.25001157 -.00857513  00000+0 -94674-2 0  9991
2 56484  70.0013 333.9276 0003557 273.2588  96.3984 15.65474374 15526
STARLINK-6210           
1 56485U 23064AP  23227.25001157 -.00863449  00000+0 -95242-2 0  9999
2 56485  70.0012 333.9235 0003547 272.1987 100.7253 15.65515639 15520
STARLINK-6201           
1 56486U 23064AQ  23227.25001157 -.00863370  00000+0 -95316-2 0  9995
2 56486  70.0013 333.9260 0003539 269.0386 101.9240 15.65493891 15523
STARLINK-6196           
1 56487U 23064AR  23227.43542377 -.00004100  00000+0 -32327-4 0  9993
2 56487  69.9979 333.3788 0002780 293.7062  66.3841 15.69940116 15558
STARLINK-6204           
1 56488U 23064AS  23227.43564238  .00000172  00000+0  32038-5 0  9997
2 56488  69.9977 333.3789 0003605 270.1327  89.9455 15.69921570 15553
STARLINK-5923           
1 56489U 23064AT  23227.43532728  .00000883  00000+0  91040-5 0  9994
2 56489  69.9997 333.3780 0002709 253.5959 106.4939 15.69948261 15555
STARLINK-5873           
1 56490U 23064AU  23227.43552698 -.00009679  00000+0 -78702-4 0  9997
2 56490  69.9970 333.3794 0004379 255.9134 104.1575 15.69950901 15554
STARLINK-5842           
1 56491U 23064AV  23226.79804579 -.00004057  00000+0 -31979-4 0  9994
2 56491  69.9970 335.1696 0003392 264.4909  95.5899 15.69926376 15455
STARLINK-5846           
1 56492U 23064AW  23227.43500900  .00001849  00000+0  17152-4 0  9999
2 56492  69.9981 333.3762 0003460 273.2615  86.8185 15.69914756 15551
STARLINK-5841           
1 56493U 23064AX  23227.43447805 -.00001963  00000+0 -14548-4 0  9999
2 56493  69.9974 333.3756 0003388 267.0092  93.0716 15.69937816 15558
STARLINK-5530           
1 56494U 23064AY  23227.43511629  .00000931  00000+0  95121-5 0  9995
2 56494  69.9997 333.3787 0002628 296.7277  63.3649 15.69920090 15559
STARLINK-5529           
1 56495U 23064AZ  23227.43479745 -.00000096  00000+0  97121-6 0  9994
2 56495  69.9976 333.3771 0003395 274.9647  85.1161 15.69930680 15558
STARLINK-5526           
1 56496U 23064BA  23227.43468930  .00001286  00000+0  12463-4 0  9994
2 56496  69.9973 333.3773 0003597 275.2487  84.8299 15.69927245 15559
STARLINK-5527           
1 56497U 23064BB  23226.79741155  .00002158  00000+0  19706-4 0  9992
2 56497  69.9976 335.1671 0003397 266.0522  94.0285 15.69933244 15459
STARLINK-5522           
1 56498U 23064BC  23227.43490211  .00000796  00000+0  83931-5 0  9997
2 56498  69.9976 333.3778 0003683 273.9368  86.1406 15.69922842 15551
STARLINK-5775           
1 56503U 23065A   23227.24099125 -.00012506  00000+0 -86817-3 0  9991
2 56503  43.0000 264.5640 0002052 259.8094 100.2517 15.04385419 14822
STARLINK-5716           
1 56504U 23065B   23227.58334491  .00051911  00000+0  38320-2 0  9993
2 56504  42.9994 262.6564 0001405 281.0393 153.3517 15.02510850 14878
STARLINK-5763           
1 56505U 23065C   23227.25001157 -.00040193  00000+0 -29752-2 0  9999
2 56505  42.9992 264.4381 0000904 271.8565 169.4446 15.02563567 14822
STARLINK-5340           
1 56506U 23065D   23227.58334491 -.00884876  00000+0 -58448-1 0  9993
2 56506  42.9951 250.0331 0001350 273.4782 352.7853 15.09543949 15019
STARLINK-5333           
1 56507U 23065E   23227.38686910 -.00001925  00000+0 -11244-4 0  9990
2 56507  43.0028 242.1329 0001374 261.5768  98.4944 15.71337262 15084
STARLINK-5335           
1 56508U 23065F   23226.91668981  .00005231  00000+0  40194-3 0  9994
2 56508  42.9996 266.2050 0001314 271.0393 183.2195 15.02542709 14773
STARLINK-5334           
1 56509U 23065G   23227.42334176 -.00000014  00000+0  14015-4 0  9997
2 56509  43.0002 263.3490 0000888 263.9876  96.0865 15.02539623 14856
STARLINK-5339           
1 56510U 23065H   23226.91668981  .00004275  00000+0  33133-3 0  9999
2 56510  42.9995 266.1758 0001112 264.1543 202.1621 15.02534442 14775
STARLINK-5351           
1 56511U 23065J   23226.82393651 -.00000183  00000+0  15122-5 0  9994
2 56511  42.9994 266.5879 0000985 274.8781  85.1949 15.02535878 14767
STARLINK-5349           
1 56512U 23065K   23226.91668981  .00004614  00000+0  35636-3 0  9998
2 56512  42.9995 266.1326 0001348 266.7915 217.5411 15.02540325 14774
STARLINK-5329           
1 56513U 23065L   23226.15360965 -.00000236  00000+0 -24415-5 0  9999
2 56513  42.9994 270.1583 0001027 275.8520  84.2205 15.02533373 14664
